OBJECT_NAME,OBJECT_ID,EPOCH,MEAN_MOTION,ECCENTRICITY,INCLINATION,RA_OF_ASC_NODE,ARG_OF_PERICENTER,MEAN_ANOMALY,EPHEMERIS_TYPE,CLASSIFICATION_TYPE,NORAD_CAT_ID,ELEMENT_SET_NO,REV_AT_EPOCH,BSTAR,MEAN_MOTION_DOT,MEAN_MOTION_DDOT
KUZGTU 1 (RS47S),2023-091AV,2026-07-08T22:36:35.441568,15.30374963,.00107485,97.5054,254.6493,28.2875,331.8947,0,U,57217,999,16770,.28233821E-3,.823E-4,0
SONATE-2,2024-043Q,2026-07-08T16:44:16.237824,15.60429584,.00068494,97.5553,341.4420,125.8074,234.3820,0,U,59112,999,13124,.42050151E-3,.34536E-3,0
MESAT1,2024-125G,2026-07-08T14:21:38.030976,15.65779922,.00109783,97.2271,47.6034,133.0772,227.1409,0,U,60209,999,11291,.51996859E-3,.52869E-3,0
OOV-CUBE (TUBSAT-30),2024-128F,2026-07-08T14:43:31.268640,15.02856535,.00419329,61.9939,150.8549,138.4682,221.9608,0,U,60240,999,10933,.1147729E-3,.1358E-4,0
COLIBRI-S (RS67S),2024-199M,2026-07-08T21:48:05.380704,15.48656078,.00081721,97.2969,63.9703,184.6978,175.4198,0,U,61746,999,14077,.28595078E-3,.15223E-3,0
HORS 3 (RS81S),2024-199U,2026-07-08T23:00:22.778208,15.56568355,.00063535,97.2950,66.2531,175.9548,184.1760,0,U,61753,999,14094,.40039943E-3,.28414E-3,0
HORS 4 (RS82S),2024-199V,2026-07-08T21:55:47.258688,15.61886473,.00063029,97.2891,67.5579,166.4741,193.6688,0,U,61754,999,14103,.47224277E-3,.4106E-3,0
SIT-2086,2024-199AF,2026-07-08T23:07:11.252352,15.54677327,.00075193,97.2908,66.6587,163.9359,196.2135,0,U,61764,999,13781,.43801195E-3,.29016E-3,0
HYPERVIEW 1G (RS66S),2024-199AP,2026-07-08T22:11:38.577984,15.83148409,.00079466,97.2822,70.8461,161.1916,198.9649,0,U,61772,999,13810,.82494834E-3,.179836E-2,0
ALTAIR (RS65S),2024-199AW,2026-07-08T22:02:58.869888,15.37424773,.00113851,97.3008,59.1291,220.6663,139.3732,0,U,61779,999,14045,.14472912E-3,.5238E-4,0
ASRTU-1 (AO-123),2024-199AY,2026-07-08T22:13:56.799840,15.35992021,.00123743,97.2978,58.4026,224.6893,135.3355,0,U,61781,999,13726,.14798484E-3,.5116E-4,0
SAMSAT-IONOSPHERE (RS75S),2024-199BB,2026-07-08T22:51:47.453184,15.59667511,.00084274,97.2914,66.3790,181.0791,179.0449,0,U,61784,999,14095,.51309833E-3,.41019E-3,0
RTU MIREA 1 (RS51S),2024-199BC,2026-07-08T22:12:29.296512,15.63674476,.00085735,97.2899,67.3026,175.4311,184.7028,0,U,61785,999,13786,.54410585E-3,.50835E-3,0
TEVEL2-4,2025-052D,2026-07-08T16:40:17.187168,15.35403754,.00040656,97.3875,86.1299,66.1936,293.9733,0,U,63213,999,7341,.42297145E-3,.1448E-3,0
TEVEL2-5,2025-052E,2026-07-08T15:39:31.999680,15.35218873,.00041301,97.3873,86.0291,66.2017,293.9660,0,U,63214,999,7340,.41324257E-3,.14062E-3,0
TEVEL2-6,2025-052F,2026-07-08T15:57:59.657184,15.35183402,.00040237,97.3876,86.0268,69.1979,290.9695,0,U,63215,999,7340,.41421853E-3,.14079E-3,0
TEVEL2-1,2025-052H,2026-07-06T16:20:01.551264,15.34567986,.0004748,97.3844,83.6383,76.8203,283.3570,0,U,63217,999,7308,.45647174E-3,.15226E-3,0
TEVEL2-3,2025-052J,2026-07-08T16:41:55.474944,15.34682438,.00044466,97.3853,85.6806,73.4678,286.7053,0,U,63218,999,7339,.39085683E-3,.13069E-3,0
TEVEL2-2,2025-052K,2026-07-08T12:09:23.175072,15.34625790,.00047047,97.3852,85.4689,73.9445,286.2316,0,U,63219,999,7336,.39012445E-3,.13021E-3,0
OTP-2,2025-052AB,2026-07-08T16:41:56.134176,15.24281264,.00083083,97.3844,81.8058,88.6263,271.5926,0,U,63235,999,7314,.20138375E-3,.4852E-4,0
TEVEL2-9,2025-052AD,2026-07-08T15:25:07.851072,15.32589963,.0008135,97.3915,84.9331,74.7614,285.4527,0,U,63237,999,7331,.40917582E-3,.12819E-3,0
TEVEL2-7,2025-052AE,2026-07-08T16:30:08.198496,15.32278657,.00082084,97.3914,84.8845,74.7794,285.4355,0,U,63238,999,7331,.37136544E-3,.11512E-3,0
TEVEL2-8,2025-052AF,2026-07-08T16:42:19.133856,15.32263765,.00081757,97.3912,84.8694,75.3495,284.8653,0,U,63239,999,7331,.37502066E-3,.11621E-3,0
INNOSAT 16 (RS92S7),2025-155C,2026-07-08T23:24:14.243904,15.25693519,.00124088,97.4574,157.0379,106.9714,253.2886,0,U,64878,999,8399,.15418904E-3,.3862E-4,0
GEOSCAN 6 (RS92S6),2025-155D,2026-07-08T22:55:36.484896,15.30572844,.00100025,97.4565,158.5985,99.5446,260.6925,0,U,64879,999,8409,.22321514E-3,.6529E-4,0
GEOSCAN 1 (RS92S1),2025-155E,2026-07-08T22:46:29.982432,15.31211620,.00099397,97.4561,158.7596,99.6535,260.5829,0,U,64880,999,8410,.25034964E-3,.748E-4,0
239ALFEROV (RS61S),2025-155F,2026-07-08T22:50:35.537280,15.33549732,.000964,97.4560,159.3991,99.1087,261.1247,0,U,64881,999,8414,.31015695E-3,.9995E-4,0
GEOSCAN 2 (RS92S2),2025-155Q,2026-07-08T22:31:59.627712,15.31470167,.0009268,97.4560,158.9104,89.6123,270.6180,0,U,64890,999,8411,.25085551E-3,.7555E-4,0
GEOSCAN 5 (RS92S5),2025-155R,2026-07-08T22:28:21.840096,15.33859045,.00086383,97.4552,159.5294,103.1009,257.1198,0,U,64891,999,8415,.30672602E-3,.9978E-4,0
GEOSCAN 4 (RS92S4),2025-155S,2026-07-08T22:02:21.597792,15.34023193,.00086046,97.4557,159.5659,103.2937,256.9266,0,U,64892,999,8415,.31784394E-3,.10397E-3,0
