KUZGTU 1 (RS47S)        
1 57217U 23091AV  26189.94207687  .00008230  00000+0  28234-3 0  9990
2 57217  97.5054 254.6493 0010748  28.2875 331.8947 15.30374963167706
SONATE-2                
1 59112U 24043Q   26189.69741016  .00034536  00000+0  42050-3 0  9995
2 59112  97.5553 341.4420 0006849 125.8074 234.3820 15.60429584131243
MESAT1                  
1 60209U 24125G   26189.59835684  .00052869  00000+0  51997-3 0  9998
2 60209  97.2271  47.6034 0010978 133.0772 227.1409 15.65779922112911
OOV-CUBE (TUBSAT-30)    
1 60240U 24128F   26189.61355635  .00001358  00000+0  11477-3 0  9998
2 60240  61.9939 150.8549 0041932 138.4682 221.9608 15.02856535109338
COLIBRI-S (RS67S)       
1 61746U 24199M   26189.90839561  .00015223  00000+0  28595-3 0  9990
2 61746  97.2969  63.9703 0008172 184.6978 175.4198 15.48656078140771
HORS 3 (RS81S)          
1 61753U 24199U   26189.95859697  .00028414  00000+0  40040-3 0  9990
2 61753  97.2950  66.2531 0006353 175.9548 184.1760 15.56568355140949
HORS 4 (RS82S)          
1 61754U 24199V   26189.91374142  .00041060  00000+0  47224-3 0  9997
2 61754  97.2891  67.5579 0006302 166.4741 193.6688 15.61886473141039
SIT-2086                
1 61764U 24199AF  26189.96332468  .00029016  00000+0  43801-3 0  9992
2 61764  97.2908  66.6587 0007519 163.9359 196.2135 15.54677327137811
HYPERVIEW 1G (RS66S)    
1 61772U 24199AP  26189.92475206  .00179836  00000+0  82495-3 0  9993
2 61772  97.2822  70.8461 0007946 161.1916 198.9649 15.83148409138104
ALTAIR (RS65S)          
1 61779U 24199AW  26189.91873692  .00005238  00000+0  14473-3 0  9995
2 61779  97.3008  59.1291 0011385 220.6663 139.3732 15.37424773140454
ASRTU-1 (AO-123)        
1 61781U 24199AY  26189.92635185  .00005116  00000+0  14798-3 0  9997
2 61781  97.2978  58.4026 0012374 224.6893 135.3355 15.35992021137264
SAMSAT-IONOSPHERE (RS7*)
1 61784U 24199BB  26189.95263256  .00041019  00000+0  51310-3 0  9992
2 61784  97.2914  66.3790 0008427 181.0791 179.0449 15.59667511140958
RTU MIREA 1 (RS51S)     
1 61785U 24199BC  26189.92533908  .00050835  00000+0  54411-3 0  9995
2 61785  97.2899  67.3026 0008573 175.4311 184.7028 15.63674476137866
TEVEL2-4                
1 63213U 25052D   26189.69464337  .00014480  00000+0  42297-3 0  9990
2 63213  97.3875  86.1299 0004065  66.1936 293.9733 15.35403754 73415
TEVEL2-5                
1 63214U 25052E   26189.65245370  .00014062  00000+0  41324-3 0  9997
2 63214  97.3873  86.0291 0004130  66.2017 293.9660 15.35218873 73403
TEVEL2-6                
1 63215U 25052F   26189.66527381  .00014079  00000+0  41422-3 0  9991
2 63215  97.3876  86.0268 0004023  69.1979 290.9695 15.35183402 73405
TEVEL2-1                
1 63217U 25052H   26187.68057351  .00015226  00000+0  45647-3 0  9996
2 63217  97.3844  83.6383 0004748  76.8203 283.3570 15.34567986 73086
TEVEL2-3                
1 63218U 25052J   26189.69578096  .00013069  00000+0  39086-3 0  9997
2 63218  97.3853  85.6806 0004446  73.4678 286.7053 15.34682438 73390
TEVEL2-2                
1 63219U 25052K   26189.50651823  .00013021  00000+0  39012-3 0  9995
2 63219  97.3852  85.4689 0004704  73.9445 286.2316 15.34625790 73363
OTP-2                   
1 63235U 25052AB  26189.69578859  .00004852  00000+0  20138-3 0  9991
2 63235  97.3844  81.8058 0008308  88.6263 271.5926 15.24281264 73140
TEVEL2-9                
1 63237U 25052AD  26189.64245198  .00012819  00000+0  40918-3 0  9995
2 63237  97.3915  84.9331 0008135  74.7614 285.4527 15.32589963 73319
TEVEL2-7                
1 63238U 25052AE  26189.68759489  .00011512  00000+0  37137-3 0  9991
2 63238  97.3914  84.8845 0008208  74.7794 285.4355 15.32278657 73312
TEVEL2-8                
1 63239U 25052AF  26189.69605479  .00011621  00000+0  37502-3 0  9999
2 63239  97.3912  84.8694 0008175  75.3495 284.8653 15.32263765 73319
INNOSAT 16 (RS92S7)     
1 64878U 25155C   26189.97516486  .00003862  00000+0  15419-3 0  9994
2 64878  97.4574 157.0379 0012408 106.9714 253.2886 15.25693519 83995
GEOSCAN 6 (RS92S6)      
1 64879U 25155D   26189.95528339  .00006529  00000+0  22322-3 0  9997
2 64879  97.4565 158.5985 0010002  99.5446 260.6925 15.30572844 84093
GEOSCAN 1 (RS92S1)      
1 64880U 25155E   26189.94895813  .00007480  00000+0  25035-3 0  9993
2 64880  97.4561 158.7596 0009939  99.6535 260.5829 15.31211620 84105
239ALFEROV (RS61S)      
1 64881U 25155F   26189.95180020  .00009995  00000+0  31016-3 0  9991
2 64881  97.4560 159.3991 0009640  99.1087 261.1247 15.33549732 84142
GEOSCAN 2 (RS92S2)      
1 64890U 25155Q   26189.93888458  .00007555  00000+0  25086-3 0  9999
2 64890  97.4560 158.9104 0009268  89.6123 270.6180 15.31470167 84115
GEOSCAN 5 (RS92S5)      
1 64891U 25155R   26189.93636389  .00009978  00000+0  30673-3 0  9993
2 64891  97.4552 159.5294 0008638 103.1009 257.1198 15.33859045 84150
GEOSCAN 4 (RS92S4)      
1 64892U 25155S   26189.91830553  .00010397  00000+0  31784-3 0  9992
2 64892  97.4557 159.5659 0008604 103.2937 256.9266 15.34023193 84156
